SL-3 R/B                
1 13403U 82079B   26014.11971070  .00002991  00000+0  12127-3 0  9992
2 13403  81.1462 257.4830 0025423 353.5807   6.5096 15.24025532369385
SL-14 R/B               
1 13553U 82092B   26013.94074990  .00000411  00000+0  43405-4 0  9997
2 13553  82.5670 192.5946 0021658 120.7736  39.2005 14.86592910320796
SL-3 R/B                
1 13819U 83010B   26014.11191846  .00008322  00000+0  17829-3 0  9992
2 13819  81.1036  69.0743 0016314 233.8799 126.0936 15.44459783349517
SL-3 R/B                
1 14208U 83075B   26014.15421970  .00007061  00000+0  19617-3 0  9990
2 14208  97.6115  16.7459 0024346  66.9126 293.4681 15.36912570321779
COSMOS 1536             
1 14699U 84013A   26014.13712277  .00004267  00000+0  17952-3 0  9993
2 14699  82.5458 162.0246 0015621 113.0552 247.2333 15.22999703264313
SL-14 R/B               
1 14820U 84027B   26013.81202874  .00000354  00000+0  37700-4 0  9992
2 14820  82.5432 296.4826 0018647 150.7241 209.5025 14.85914158239489
SL-8 R/B                
1 15483U 85006B   26014.10892688  .00000218  00000+0  81095-4 0  9992
2 15483  74.0464   1.5761 0019762 288.3684 142.8298 14.37745424146187
SL-12 R/B(2)            
1 15772U 85042D   26014.26811683  .00000003  00000+0  22823-4 0  9992
2 15772  71.1064 202.7008 0036441 213.3497 319.7626 14.21962136106656
SL-14 R/B               
1 15945U 85069B   26014.15008109  .00000318  00000+0  33187-4 0  9996
2 15945  82.5257  76.2321 0019195  17.8076 342.3809 14.86364249164737
SL-16 R/B               
1 16182U 85097B   26014.13022508 -.00000038  00000+0  50424-5 0  9992
2 16182  71.0021 255.4141 0008626 324.5753 146.7383 14.16592379 79504
SL-14 R/B               
1 16496U 86006B   26013.80462911  .00000513  00000+0  51530-4 0  9995
2 16496  82.5286 311.3835 0078296  94.5110 266.5056 14.86720039141056
COSMOS 1743             
1 16719U 86034A   26013.80287849  .00023328  00000+0  35505-3 0  9991
2 16719  82.5352 131.2370 0005287 131.8643 228.3062 15.54358229171710
