CCSDS_OMM_VERS = 2.0
CREATION_DATE  = 
ORIGINATOR     = 

OBJECT_NAME    = SL-3 R/B
OBJECT_ID      = 1982-079B
CENTER_NAME    = EARTH
REF_FRAME      = TEME
TIME_SYSTEM    = UTC
MEAN_ELEMENT_THEORY = SGP/SGP4

EPOCH          = 2026-01-14T02:52:23.004480
MEAN_MOTION    = 15.24025532
ECCENTRICITY   = .00254233
INCLINATION    = 81.1462
RA_OF_ASC_NODE = 257.4830
ARG_OF_PERICENTER = 353.5807
MEAN_ANOMALY   = 6.5096

EPHEMERIS_TYPE = 0
CLASSIFICATION_TYPE = U
NORAD_CAT_ID   = 13403
ELEMENT_SET_NO = 999
REV_AT_EPOCH   = 36938
BSTAR          = .12127279E-3
MEAN_MOTION_DOT = .2991E-4
MEAN_MOTION_DDOT = 0

CCSDS_OMM_VERS = 2.0
CREATION_DATE  = 
ORIGINATOR     = 

OBJECT_NAME    = SL-14 R/B
OBJECT_ID      = 1982-092B
CENTER_NAME    = EARTH
REF_FRAME      = TEME
TIME_SYSTEM    = UTC
MEAN_ELEMENT_THEORY = SGP/SGP4

EPOCH          = 2026-01-13T22:34:40.791360
MEAN_MOTION    = 14.86592910
ECCENTRICITY   = .00216585
INCLINATION    = 82.5670
RA_OF_ASC_NODE = 192.5946
ARG_OF_PERICENTER = 120.7736
MEAN_ANOMALY   = 39.2005

EPHEMERIS_TYPE = 0
CLASSIFICATION_TYPE = U
NORAD_CAT_ID   = 13553
ELEMENT_SET_NO = 999
REV_AT_EPOCH   = 32079
BSTAR          = .43404954E-4
MEAN_MOTION_DOT = .411E-5
MEAN_MOTION_DDOT = 0

CCSDS_OMM_VERS = 2.0
CREATION_DATE  = 
ORIGINATOR     = 

OBJECT_NAME    = SL-3 R/B
OBJECT_ID      = 1983-010B
CENTER_NAME    = EARTH
REF_FRAME      = TEME
TIME_SYSTEM    = UTC
MEAN_ELEMENT_THEORY = SGP/SGP4

EPOCH          = 2026-01-14T02:41:09.754944
MEAN_MOTION    = 15.44459783
ECCENTRICITY   = .00163142
INCLINATION    = 81.1036
RA_OF_ASC_NODE = 69.0743
ARG_OF_PERICENTER = 233.8799
MEAN_ANOMALY   = 126.0936

EPHEMERIS_TYPE = 0
CLASSIFICATION_TYPE = U
NORAD_CAT_ID   = 13819
ELEMENT_SET_NO = 999
REV_AT_EPOCH   = 34951
BSTAR          = .17829183E-3
MEAN_MOTION_DOT = .8322E-4
MEAN_MOTION_DDOT = 0

CCSDS_OMM_VERS = 2.0
CREATION_DATE  = 
ORIGINATOR     = 

OBJECT_NAME    = SL-3 R/B
OBJECT_ID      = 1983-075B
CENTER_NAME    = EARTH
REF_FRAME      = TEME
TIME_SYSTEM    = UTC
MEAN_ELEMENT_THEORY = SGP/SGP4

EPOCH          = 2026-01-14T03:42:04.582080
MEAN_MOTION    = 15.36912570
ECCENTRICITY   = .00243467
INCLINATION    = 97.6115
RA_OF_ASC_NODE = 16.7459
ARG_OF_PERICENTER = 66.9126
MEAN_ANOMALY   = 293.4681

EPHEMERIS_TYPE = 0
CLASSIFICATION_TYPE = U
NORAD_CAT_ID   = 14208
ELEMENT_SET_NO = 999
REV_AT_EPOCH   = 32177
BSTAR          = .19617325E-3
MEAN_MOTION_DOT = .7061E-4
MEAN_MOTION_DDOT = 0

CCSDS_OMM_VERS = 2.0
CREATION_DATE  = 
ORIGINATOR     = 

OBJECT_NAME    = COSMOS 1536
OBJECT_ID      = 1984-013A
CENTER_NAME    = EARTH
REF_FRAME      = TEME
TIME_SYSTEM    = UTC
MEAN_ELEMENT_THEORY = SGP/SGP4

EPOCH          = 2026-01-14T03:17:27.407328
MEAN_MOTION    = 15.22999703
ECCENTRICITY   = .00156217
INCLINATION    = 82.5458
RA_OF_ASC_NODE = 162.0246
ARG_OF_PERICENTER = 113.0552
MEAN_ANOMALY   = 247.2333

EPHEMERIS_TYPE = 0
CLASSIFICATION_TYPE = U
NORAD_CAT_ID   = 14699
ELEMENT_SET_NO = 999
REV_AT_EPOCH   = 26431
BSTAR          = .17952227E-3
MEAN_MOTION_DOT = .4267E-4
MEAN_MOTION_DDOT = 0

CCSDS_OMM_VERS = 2.0
CREATION_DATE  = 
ORIGINATOR     = 

OBJECT_NAME    = SL-14 R/B
OBJECT_ID      = 1984-027B
CENTER_NAME    = EARTH
REF_FRAME      = TEME
TIME_SYSTEM    = UTC
MEAN_ELEMENT_THEORY = SGP/SGP4

EPOCH          = 2026-01-13T19:29:19.283136
MEAN_MOTION    = 14.85914158
ECCENTRICITY   = .00186472
INCLINATION    = 82.5432
RA_OF_ASC_NODE = 296.4826
ARG_OF_PERICENTER = 150.7241
MEAN_ANOMALY   = 209.5025

EPHEMERIS_TYPE = 0
CLASSIFICATION_TYPE = U
NORAD_CAT_ID   = 14820
ELEMENT_SET_NO = 999
REV_AT_EPOCH   = 23948
BSTAR          = .3769952E-4
MEAN_MOTION_DOT = .354E-5
MEAN_MOTION_DDOT = 0

CCSDS_OMM_VERS = 2.0
CREATION_DATE  = 
ORIGINATOR     = 

OBJECT_NAME    = SL-8 R/B
OBJECT_ID      = 1985-006B
CENTER_NAME    = EARTH
REF_FRAME      = TEME
TIME_SYSTEM    = UTC
MEAN_ELEMENT_THEORY = SGP/SGP4

EPOCH          = 2026-01-14T02:36:51.282432
MEAN_MOTION    = 14.37745424
ECCENTRICITY   = .00197626
INCLINATION    = 74.0464
RA_OF_ASC_NODE = 1.5761
ARG_OF_PERICENTER = 288.3684
MEAN_ANOMALY   = 142.8298

EPHEMERIS_TYPE = 0
CLASSIFICATION_TYPE = U
NORAD_CAT_ID   = 15483
ELEMENT_SET_NO = 999
REV_AT_EPOCH   = 14618
BSTAR          = .81095429E-4
MEAN_MOTION_DOT = .218E-5
MEAN_MOTION_DDOT = 0

CCSDS_OMM_VERS = 2.0
CREATION_DATE  = 
ORIGINATOR     = 

OBJECT_NAME    = SL-12 R/B(2)
OBJECT_ID      = 1985-042D
CENTER_NAME    = EARTH
REF_FRAME      = TEME
TIME_SYSTEM    = UTC
MEAN_ELEMENT_THEORY = SGP/SGP4

EPOCH          = 2026-01-14T06:26:05.294112
MEAN_MOTION    = 14.21962136
ECCENTRICITY   = .00364419
INCLINATION    = 71.1064
RA_OF_ASC_NODE = 202.7008
ARG_OF_PERICENTER = 213.3497
MEAN_ANOMALY   = 319.7626

EPHEMERIS_TYPE = 0
CLASSIFICATION_TYPE = U
NORAD_CAT_ID   = 15772
ELEMENT_SET_NO = 999
REV_AT_EPOCH   = 10665
BSTAR          = .22822835E-4
MEAN_MOTION_DOT = .3E-7
MEAN_MOTION_DDOT = 0

CCSDS_OMM_VERS = 2.0
CREATION_DATE  = 
ORIGINATOR     = 

OBJECT_NAME    = SL-14 R/B
OBJECT_ID      = 1985-069B
CENTER_NAME    = EARTH
REF_FRAME      = TEME
TIME_SYSTEM    = UTC
MEAN_ELEMENT_THEORY = SGP/SGP4

EPOCH          = 2026-01-14T03:36:07.006176
MEAN_MOTION    = 14.86364249
ECCENTRICITY   = .00191958
INCLINATION    = 82.5257
RA_OF_ASC_NODE = 76.2321
ARG_OF_PERICENTER = 17.8076
MEAN_ANOMALY   = 342.3809

EPHEMERIS_TYPE = 0
CLASSIFICATION_TYPE = U
NORAD_CAT_ID   = 15945
ELEMENT_SET_NO = 999
REV_AT_EPOCH   = 16473
BSTAR          = .33187286E-4
MEAN_MOTION_DOT = .318E-5
MEAN_MOTION_DDOT = 0

CCSDS_OMM_VERS = 2.0
CREATION_DATE  = 
ORIGINATOR     = 

OBJECT_NAME    = SL-16 R/B
OBJECT_ID      = 1985-097B
CENTER_NAME    = EARTH
REF_FRAME      = TEME
TIME_SYSTEM    = UTC
MEAN_ELEMENT_THEORY = SGP/SGP4

EPOCH          = 2026-01-14T03:07:31.446912
MEAN_MOTION    = 14.16592379
ECCENTRICITY   = .00086261
INCLINATION    = 71.0021
RA_OF_ASC_NODE = 255.4141
ARG_OF_PERICENTER = 324.5753
MEAN_ANOMALY   = 146.7383

EPHEMERIS_TYPE = 0
CLASSIFICATION_TYPE = U
NORAD_CAT_ID   = 16182
ELEMENT_SET_NO = 999
REV_AT_EPOCH   = 7950
BSTAR          = .5042446E-5
MEAN_MOTION_DOT = -.38E-6
MEAN_MOTION_DDOT = 0

CCSDS_OMM_VERS = 2.0
CREATION_DATE  = 
ORIGINATOR     = 

OBJECT_NAME    = SL-14 R/B
OBJECT_ID      = 1986-006B
CENTER_NAME    = EARTH
REF_FRAME      = TEME
TIME_SYSTEM    = UTC
MEAN_ELEMENT_THEORY = SGP/SGP4

EPOCH          = 2026-01-13T19:18:39.955104
MEAN_MOTION    = 14.86720039
ECCENTRICITY   = .00782969
INCLINATION    = 82.5286
RA_OF_ASC_NODE = 311.3835
ARG_OF_PERICENTER = 94.5110
MEAN_ANOMALY   = 266.5056

EPHEMERIS_TYPE = 0
CLASSIFICATION_TYPE = U
NORAD_CAT_ID   = 16496
ELEMENT_SET_NO = 999
REV_AT_EPOCH   = 14105
BSTAR          = .51530134E-4
MEAN_MOTION_DOT = .513E-5
MEAN_MOTION_DDOT = 0

CCSDS_OMM_VERS = 2.0
CREATION_DATE  = 
ORIGINATOR     = 

OBJECT_NAME    = COSMOS 1743
OBJECT_ID      = 1986-034A
CENTER_NAME    = EARTH
REF_FRAME      = TEME
TIME_SYSTEM    = UTC
MEAN_ELEMENT_THEORY = SGP/SGP4

EPOCH          = 2026-01-13T19:16:08.701536
MEAN_MOTION    = 15.54358229
ECCENTRICITY   = .00052876
INCLINATION    = 82.5352
RA_OF_ASC_NODE = 131.2370
ARG_OF_PERICENTER = 131.8643
MEAN_ANOMALY   = 228.3062

EPHEMERIS_TYPE = 0
CLASSIFICATION_TYPE = U
NORAD_CAT_ID   = 16719
ELEMENT_SET_NO = 999
REV_AT_EPOCH   = 17171
BSTAR          = .35505122E-3
MEAN_MOTION_DOT = .23328E-3
MEAN_MOTION_DDOT = 0

